[{"OBJECT_NAME":"OBJECT B","OBJECT_ID":"2024-203B","EPOCH":"2026-03-09T23:52:52.928256","MEAN_MOTION":15.27506959,"ECCENTRICITY":0.00103904,"INCLINATION":97.4268,"RA_OF_ASC_NODE":139.5887,"ARG_OF_PERICENTER":321.1475,"MEAN_ANOMALY":38.9016,"EPHEMERIS_TYPE":0,"CLASSIFICATION_TYPE":"U","NORAD_CAT_ID":61870,"ELEMENT_SET_NO":999,"REV_AT_EPOCH":7381,"BSTAR":0.00063263842,"MEAN_MOTION_DOT":0.00016997,"MEAN_MOTION_DDOT":0},{"OBJECT_NAME":"STARLINK-34827","OBJECT_ID":"2025-161Z","EPOCH":"2026-03-09T21:10:48.969408","MEAN_MOTION":15.30204668,"ECCENTRICITY":8.557e-5,"INCLINATION":53.1603,"RA_OF_ASC_NODE":292.9958,"ARG_OF_PERICENTER":129.5295,"MEAN_ANOMALY":230.5781,"EPHEMERIS_TYPE":0,"CLASSIFICATION_TYPE":"U","NORAD_CAT_ID":65038,"ELEMENT_SET_NO":999,"REV_AT_EPOCH":3426,"BSTAR":0.0008725664,"MEAN_MOTION_DOT":0.00025576,"MEAN_MOTION_DDOT":0}]
